GLOBALSTAR M063         
1 26081U 00008A   25188.54229731 -.00000118  00000+0 -51327-3 0  9994
2 26081  51.9969  57.9642 0004866   5.2665  18.9853 11.86174057159996
GLOBALSTAR M062         
1 26082U 00008B   25188.07451266 -.00000037  00000+0  43817-3 0  9997
2 26082  51.9862  37.2995 0007424 147.7457 351.1873 12.43471106499096
GLOBALSTAR M060         
1 26083U 00008C   25188.59136403 -.00000177  00000+0 -85947-3 0  9994
2 26083  52.0045 358.6741 0003613 153.8297 295.8987 12.17666073154859
GLOBALSTAR M064         
1 26084U 00008D   25188.07509502 -.00000090  00000+0 -91479-4 0  9994
2 26084  52.0006 157.7870 0001310  82.2762 277.8220 11.88534711169465
GLOBALSTAR M065         
1 31571U 07020A   25188.10884988 -.00000090  00000+0  75032-4 0  9996
2 31571  51.9870 165.6318 0010244 353.4632  85.5999 12.62010073835920
GLOBALSTAR M069         
1 31573U 07020C   25188.19373825 -.00000085  00000+0  72490-4 0  9999
2 31573  51.9931 148.5992 0000851 198.8184 262.4601 12.23446985836574
GLOBALSTAR M072         
1 31574U 07020D   25187.74183241 -.00000077  00000+0  95226-4 0  9994
2 31574  51.9948 299.9123 0000889  42.1967 109.1973 11.91650049833793
GLOBALSTAR M071         
1 31576U 07020F   25188.07155000 -.00000147  00000+0 -54742-3 0  9991
2 31576  52.0035 175.1090 0000613 151.3323 295.0431 12.18255869497360
