<?xml version="1.0" encoding="UTF-8"?>
<ndm xmlns:xsi="http://www.w3.org/2001/XMLSchema-instance" xsi:noNamespaceSchemaLocation="https://sanaregistry.org/r/ndmxml_unqualified/ndmxml-2.0.0-master-2.0.xsd">
<omm id="CCSDS_OMM_VERS" version="2.0">
<header><CREATION_DATE/><ORIGINATOR/></header><body><segment><metadata><OBJECT_NAME>GLOBALSTAR M063</OBJECT_NAME><OBJECT_ID>2000-008A</OBJECT_ID><CENTER_NAME>EARTH</CENTER_NAME><REF_FRAME>TEME</REF_FRAME><TIME_SYSTEM>UTC</TIME_SYSTEM><MEAN_ELEMENT_THEORY>SGP4</MEAN_ELEMENT_THEORY></metadata><data><meanElements><EPOCH>2025-07-07T13:00:54.487584</EPOCH><MEAN_MOTION>11.86174057</MEAN_MOTION><ECCENTRICITY>.0004866</ECCENTRICITY><INCLINATION>51.9969</INCLINATION><RA_OF_ASC_NODE>57.9642</RA_OF_ASC_NODE><ARG_OF_PERICENTER>5.2665</ARG_OF_PERICENTER><MEAN_ANOMALY>18.9853</MEAN_ANOMALY></meanElements><tleParameters><EPHEMERIS_TYPE>0</EPHEMERIS_TYPE><CLASSIFICATION_TYPE>U</CLASSIFICATION_TYPE><NORAD_CAT_ID>26081</NORAD_CAT_ID><ELEMENT_SET_NO>999</ELEMENT_SET_NO><REV_AT_EPOCH>15999</REV_AT_EPOCH><BSTAR>-.51327E-3</BSTAR><MEAN_MOTION_DOT>-.118E-5</MEAN_MOTION_DOT><MEAN_MOTION_DDOT>0</MEAN_MOTION_DDOT></tleParameters></data></segment></body></omm>
<omm id="CCSDS_OMM_VERS" version="2.0">
<header><CREATION_DATE/><ORIGINATOR/></header><body><segment><metadata><OBJECT_NAME>GLOBALSTAR M062</OBJECT_NAME><OBJECT_ID>2000-008B</OBJECT_ID><CENTER_NAME>EARTH</CENTER_NAME><REF_FRAME>TEME</REF_FRAME><TIME_SYSTEM>UTC</TIME_SYSTEM><MEAN_ELEMENT_THEORY>SGP4</MEAN_ELEMENT_THEORY></metadata><data><meanElements><EPOCH>2025-07-07T01:47:17.893824</EPOCH><MEAN_MOTION>12.43471106</MEAN_MOTION><ECCENTRICITY>.0007424</ECCENTRICITY><INCLINATION>51.9862</INCLINATION><RA_OF_ASC_NODE>37.2995</RA_OF_ASC_NODE><ARG_OF_PERICENTER>147.7457</ARG_OF_PERICENTER><MEAN_ANOMALY>351.1873</MEAN_ANOMALY></meanElements><tleParameters><EPHEMERIS_TYPE>0</EPHEMERIS_TYPE><CLASSIFICATION_TYPE>U</CLASSIFICATION_TYPE><NORAD_CAT_ID>26082</NORAD_CAT_ID><ELEMENT_SET_NO>999</ELEMENT_SET_NO><REV_AT_EPOCH>49909</REV_AT_EPOCH><BSTAR>.43817E-3</BSTAR><MEAN_MOTION_DOT>-.37E-6</MEAN_MOTION_DOT><MEAN_MOTION_DDOT>0</MEAN_MOTION_DDOT></tleParameters></data></segment></body></omm>
<omm id="CCSDS_OMM_VERS" version="2.0">
<header><CREATION_DATE/><ORIGINATOR/></header><body><segment><metadata><OBJECT_NAME>GLOBALSTAR M060</OBJECT_NAME><OBJECT_ID>2000-008C</OBJECT_ID><CENTER_NAME>EARTH</CENTER_NAME><REF_FRAME>TEME</REF_FRAME><TIME_SYSTEM>UTC</TIME_SYSTEM><MEAN_ELEMENT_THEORY>SGP4</MEAN_ELEMENT_THEORY></metadata><data><meanElements><EPOCH>2025-07-07T14:11:33.852192</EPOCH><MEAN_MOTION>12.17666073</MEAN_MOTION><ECCENTRICITY>.0003613</ECCENTRICITY><INCLINATION>52.0045</INCLINATION><RA_OF_ASC_NODE>358.6741</RA_OF_ASC_NODE><ARG_OF_PERICENTER>153.8297</ARG_OF_PERICENTER><MEAN_ANOMALY>295.8987</MEAN_ANOMALY></meanElements><tleParameters><EPHEMERIS_TYPE>0</EPHEMERIS_TYPE><CLASSIFICATION_TYPE>U</CLASSIFICATION_TYPE><NORAD_CAT_ID>26083</NORAD_CAT_ID><ELEMENT_SET_NO>999</ELEMENT_SET_NO><REV_AT_EPOCH>15485</REV_AT_EPOCH><BSTAR>-.85947E-3</BSTAR><MEAN_MOTION_DOT>-.177E-5</MEAN_MOTION_DOT><MEAN_MOTION_DDOT>0</MEAN_MOTION_DDOT></tleParameters></data></segment></body></omm>
<omm id="CCSDS_OMM_VERS" version="2.0">
<header><CREATION_DATE/><ORIGINATOR/></header><body><segment><metadata><OBJECT_NAME>GLOBALSTAR M064</OBJECT_NAME><OBJECT_ID>2000-008D</OBJECT_ID><CENTER_NAME>EARTH</CENTER_NAME><REF_FRAME>TEME</REF_FRAME><TIME_SYSTEM>UTC</TIME_SYSTEM><MEAN_ELEMENT_THEORY>SGP4</MEAN_ELEMENT_THEORY></metadata><data><meanElements><EPOCH>2025-07-07T01:48:08.209728</EPOCH><MEAN_MOTION>11.88534711</MEAN_MOTION><ECCENTRICITY>.000131</ECCENTRICITY><INCLINATION>52.0006</INCLINATION><RA_OF_ASC_NODE>157.7870</RA_OF_ASC_NODE><ARG_OF_PERICENTER>82.2762</ARG_OF_PERICENTER><MEAN_ANOMALY>277.8220</MEAN_ANOMALY></meanElements><tleParameters><EPHEMERIS_TYPE>0</EPHEMERIS_TYPE><CLASSIFICATION_TYPE>U</CLASSIFICATION_TYPE><NORAD_CAT_ID>26084</NORAD_CAT_ID><ELEMENT_SET_NO>999</ELEMENT_SET_NO><REV_AT_EPOCH>16946</REV_AT_EPOCH><BSTAR>-.91479E-4</BSTAR><MEAN_MOTION_DOT>-.9E-6</MEAN_MOTION_DOT><MEAN_MOTION_DDOT>0</MEAN_MOTION_DDOT></tleParameters></data></segment></body></omm>
<omm id="CCSDS_OMM_VERS" version="2.0">
<header><CREATION_DATE/><ORIGINATOR/></header><body><segment><metadata><OBJECT_NAME>GLOBALSTAR M065</OBJECT_NAME><OBJECT_ID>2007-020A</OBJECT_ID><CENTER_NAME>EARTH</CENTER_NAME><REF_FRAME>TEME</REF_FRAME><TIME_SYSTEM>UTC</TIME_SYSTEM><MEAN_ELEMENT_THEORY>SGP4</MEAN_ELEMENT_THEORY></metadata><data><meanElements><EPOCH>2025-07-07T02:36:44.629632</EPOCH><MEAN_MOTION>12.62010073</MEAN_MOTION><ECCENTRICITY>.0010244</ECCENTRICITY><INCLINATION>51.9870</INCLINATION><RA_OF_ASC_NODE>165.6318</RA_OF_ASC_NODE><ARG_OF_PERICENTER>353.4632</ARG_OF_PERICENTER><MEAN_ANOMALY>85.5999</MEAN_ANOMALY></meanElements><tleParameters><EPHEMERIS_TYPE>0</EPHEMERIS_TYPE><CLASSIFICATION_TYPE>U</CLASSIFICATION_TYPE><NORAD_CAT_ID>31571</NORAD_CAT_ID><ELEMENT_SET_NO>999</ELEMENT_SET_NO><REV_AT_EPOCH>83592</REV_AT_EPOCH><BSTAR>.75032E-4</BSTAR><MEAN_MOTION_DOT>-.9E-6</MEAN_MOTION_DOT><MEAN_MOTION_DDOT>0</MEAN_MOTION_DDOT></tleParameters></data></segment></body></omm>
<omm id="CCSDS_OMM_VERS" version="2.0">
<header><CREATION_DATE/><ORIGINATOR/></header><body><segment><metadata><OBJECT_NAME>GLOBALSTAR M069</OBJECT_NAME><OBJECT_ID>2007-020C</OBJECT_ID><CENTER_NAME>EARTH</CENTER_NAME><REF_FRAME>TEME</REF_FRAME><TIME_SYSTEM>UTC</TIME_SYSTEM><MEAN_ELEMENT_THEORY>SGP4</MEAN_ELEMENT_THEORY></metadata><data><meanElements><EPOCH>2025-07-07T04:38:58.984800</EPOCH><MEAN_MOTION>12.23446985</MEAN_MOTION><ECCENTRICITY>.0000851</ECCENTRICITY><INCLINATION>51.9931</INCLINATION><RA_OF_ASC_NODE>148.5992</RA_OF_ASC_NODE><ARG_OF_PERICENTER>198.8184</ARG_OF_PERICENTER><MEAN_ANOMALY>262.4601</MEAN_ANOMALY></meanElements><tleParameters><EPHEMERIS_TYPE>0</EPHEMERIS_TYPE><CLASSIFICATION_TYPE>U</CLASSIFICATION_TYPE><NORAD_CAT_ID>31573</NORAD_CAT_ID><ELEMENT_SET_NO>999</ELEMENT_SET_NO><REV_AT_EPOCH>83657</REV_AT_EPOCH><BSTAR>.7249E-4</BSTAR><MEAN_MOTION_DOT>-.85E-6</MEAN_MOTION_DOT><MEAN_MOTION_DDOT>0</MEAN_MOTION_DDOT></tleParameters></data></segment></body></omm>
<omm id="CCSDS_OMM_VERS" version="2.0">
<header><CREATION_DATE/><ORIGINATOR/></header><body><segment><metadata><OBJECT_NAME>GLOBALSTAR M072</OBJECT_NAME><OBJECT_ID>2007-020D</OBJECT_ID><CENTER_NAME>EARTH</CENTER_NAME><REF_FRAME>TEME</REF_FRAME><TIME_SYSTEM>UTC</TIME_SYSTEM><MEAN_ELEMENT_THEORY>SGP4</MEAN_ELEMENT_THEORY></metadata><data><meanElements><EPOCH>2025-07-06T17:48:14.320224</EPOCH><MEAN_MOTION>11.91650049</MEAN_MOTION><ECCENTRICITY>.0000889</ECCENTRICITY><INCLINATION>51.9948</INCLINATION><RA_OF_ASC_NODE>299.9123</RA_OF_ASC_NODE><ARG_OF_PERICENTER>42.1967</ARG_OF_PERICENTER><MEAN_ANOMALY>109.1973</MEAN_ANOMALY></meanElements><tleParameters><EPHEMERIS_TYPE>0</EPHEMERIS_TYPE><CLASSIFICATION_TYPE>U</CLASSIFICATION_TYPE><NORAD_CAT_ID>31574</NORAD_CAT_ID><ELEMENT_SET_NO>999</ELEMENT_SET_NO><REV_AT_EPOCH>83379</REV_AT_EPOCH><BSTAR>.95226E-4</BSTAR><MEAN_MOTION_DOT>-.77E-6</MEAN_MOTION_DOT><MEAN_MOTION_DDOT>0</MEAN_MOTION_DDOT></tleParameters></data></segment></body></omm>
<omm id="CCSDS_OMM_VERS" version="2.0">
<header><CREATION_DATE/><ORIGINATOR/></header><body><segment><metadata><OBJECT_NAME>GLOBALSTAR M071</OBJECT_NAME><OBJECT_ID>2007-020F</OBJECT_ID><CENTER_NAME>EARTH</CENTER_NAME><REF_FRAME>TEME</REF_FRAME><TIME_SYSTEM>UTC</TIME_SYSTEM><MEAN_ELEMENT_THEORY>SGP4</MEAN_ELEMENT_THEORY></metadata><data><meanElements><EPOCH>2025-07-07T01:43:01.920000</EPOCH><MEAN_MOTION>12.18255869</MEAN_MOTION><ECCENTRICITY>.0000613</ECCENTRICITY><INCLINATION>52.0035</INCLINATION><RA_OF_ASC_NODE>175.1090</RA_OF_ASC_NODE><ARG_OF_PERICENTER>151.3323</ARG_OF_PERICENTER><MEAN_ANOMALY>295.0431</MEAN_ANOMALY></meanElements><tleParameters><EPHEMERIS_TYPE>0</EPHEMERIS_TYPE><CLASSIFICATION_TYPE>U</CLASSIFICATION_TYPE><NORAD_CAT_ID>31576</NORAD_CAT_ID><ELEMENT_SET_NO>999</ELEMENT_SET_NO><REV_AT_EPOCH>49736</REV_AT_EPOCH><BSTAR>-.54742E-3</BSTAR><MEAN_MOTION_DOT>-.147E-5</MEAN_MOTION_DOT><MEAN_MOTION_DDOT>0</MEAN_MOTION_DDOT></tleParameters></data></segment></body></omm>

</ndm>
